INTELSAT 33E            
1 41748C 16053B   23030.00000000  .00000138  00000-0  00000-0 0   305
2 41748   0.0251 311.8060 0001814 346.9419 250.1842  1.00271648    15
INTELSAT 33E        [PM]
1 41748C 16053B   23031.27611111  .00000136  00000-0  00000-0 0   315
2 41748   0.0414 268.9150 0001716  25.6395 355.0333  1.00271745    11
INTELSAT 32E        [PM]
1 41945C 17007B   23024.97262732 -.00000179  00000-0  00000-0 0   244
2 41945   0.0048  78.5494 0000400  88.1031 264.2920  1.00273447    13
INTELSAT 32E            
1 41945C 17007B   23025.94994213 -.00000179  00000-0  00000-0 0   259
2 41945   0.0109  94.3678 0000217 130.9658 198.4094  1.00269465    13
INTELSAT 32E            
1 41945C 17007B   23030.00000000 -.00000178  00000-0  00000-0 0   309
2 41945   0.0054  77.6634 0000432 173.4345 194.6746  1.00270766    10
INTELSAT 32E        [PM]
1 41945C 17007B   23031.94902778 -.00000179  00000-0  00000-0 0   318
2 41945   0.0099  53.4513 0000330 161.0361 214.8336  1.00274675    18
INTELSAT 35E            
1 42818C 17041A   23025.94994213 -.00000151  00000-0  00000-0 0   257
2 42818   0.0079 105.5680 0001866 197.2544 129.6007  1.00272769    19
INTELSAT 35E            
1 42818C 17041A   23030.00000000 -.00000148  00000-0  00000-0 0   304
2 42818   0.0030  88.6784 0002118 221.9066 143.8618  1.00272624    13
INTELSAT 35E        [PM]
1 42818C 17041A   23032.03873843 -.00000194  00000-0  00000-0 0   325
2 42818   0.0374 246.7066 0002164  67.3718 156.3259  1.00272189    17
INTELSAT 37E            
1 42950C 17059A   23025.94994213 -.00000089  00000-0  00000-0 0   253
2 42950   0.0000  84.4189 0002706 216.1468 148.3592  1.00272351    13
INTELSAT 37E        [PM]
1 42950C 17059A   23029.50069444  .00000084  00000-0  00000-0 0   296
2 42950   0.0059 349.3625 0002854 313.4504 347.8921  1.00272102    17
INTELSAT 37E            
1 42950C 17059A   23030.00000000 -.00000041  00000-0  00000-0 0   302
2 42950   0.0204 306.6063 0002880 357.1877 167.1531  1.00272400    19
INTELSAT 37E        [PM]
1 42950C 17059A   23031.04513889 -.00000050  00000-0  00000-0 0   312
2 42950   0.0001  29.2144 0002892 275.3831 183.6306  1.00272335    16
AZERSPACE 2 (IS-38)     
1 43632C 18074A   23026.00000000  .00000227  00000-0  00000-0 0   263
2 43632   0.0101  96.3262 0001426 209.0842 224.6737  1.00271786    12
AZERSPACE 2 (IS-38)     
1 43632C 18074A   23030.00000000  .00000227  00000-0  00000-0 0   303
2 43632   0.0098  86.8536 0001648 221.9966 225.1834  1.00272442    15
HORIZONS-3E             
1 43633C 18074B   23026.00000000  .00000057  00000-0  00000-0 0   265
2 43633   0.0234 193.7581 0001413  77.5592  22.6879  1.00270110    15
HORIZONS-3E             
1 43633C 18074B   23030.00000000 -.00000007  00000-0  00000-0 0   301
2 43633   0.0322 236.4838 0001455  58.4511   2.9961  1.00269047    18
INTELSAT 39 (IS-39)     
1 44476C 19049B   23026.00000000  .00000125  00000-0  00000-0 0   260
2 44476   0.0000  98.7290 0001635  60.3893  27.8285  1.00270461    10
INTELSAT 39 (IS-39) [PM]
1 44476C 19049B   23026.23644676  .00000121  00000-0  00000-0 0   264
2 44476   0.0343 227.2061 0001625  21.3211  23.7739  1.00271822    16
INTELSAT 39 (IS-39)     
1 44476C 19049B   23030.00000000  .00000120  00000-0  00000-0 0   305
2 44476   0.0000  53.7216 0001492 111.9979  25.1724  1.00271639    15
INTELSAT 39 (IS-39) [PM]
1 44476C 19049B   23032.37785880  .00000122  00000-0  00000-0 0   327
2 44476   0.0489 239.9999 0001423  63.5791  25.6839  1.00272659    15
GALAXY 30 (G-30)        
1 46114C 20056C   23025.94994213  .00000037  00000-0  00000-0 0   252
2 46114   0.0000  16.3723 0002028 296.6608  28.9092  1.00271769    13
GALAXY 30 (G-30)        
1 46114C 20056C   23030.00000000  .00000128  00000-0  00000-0 0   304
2 46114   0.0036  76.9322 0002222 234.9855  52.0383  1.00270532    12
GALAXY 30 (G-30)    [PM]
1 46114C 20056C   23032.25972222  .00000138  00000-0  00000-0 0   320
2 46114   0.0395 249.7837 0002209  64.4733 145.4205  1.00270996    11
GALAXY 33 (G-33)        
1 54026C 22128A   23025.94994213  .00000169  00000-0  00000-0 0   251
2 54026   0.0221 315.3671 0001745 352.0409  26.5269  1.00269954    17
GALAXY 33 (G-33)        
1 54026C 22128A   23030.00000000  .00000165  00000-0  00000-0 0   308
2 54026   0.0362 273.1734 0002024  40.1653  42.5980  1.00271902    15
GALAXY 33 (G-33)    [PM]
1 54026C 22128A   23031.62665509  .00000073  00000-0  00000-0 0   317
2 54026   0.0292 297.4827 0002097  11.2012 274.4612  1.00270625    16
GALAXY 34 (G-34)        
1 54027C 22128B   23025.94994213  .00000149  00000-0  00000-0 0   250
2 54027   0.0094  94.4584 0001850 331.6916 271.7683  1.00270374    19
GALAXY 34 (G-34)        
1 54027C 22128B   23030.00000000  .00000064  00000-0  00000-0 0   307
2 54027   0.0242 297.7237 0001832 119.6452 302.5627  1.00273593    13
GALAXY 34 (G-34)    [PM]
1 54027C 22128B   23032.62986111  .00000166  00000-0  00000-0 0   328
2 54027   0.0417 249.6697 0001716 166.9465 172.6785  1.00270934    10
GALAXY 31 (G-31)        
1 54243C 22153A   23026.00000000  .00000121  00000-0  00000-0 0   269
2 54243   0.0539 255.9653 0002190  44.7030  60.0828  1.00471438    15
GALAXY 31 (G-31)        
1 54243C 22153A   23030.00000000  .00000089  00000-0  00000-0 0   302
2 54243   0.0434 249.0007 0002439  57.0320  61.2739  1.00338062    10
GALAXY 31 (G-31)    [PM]
1 54243C 22153A   23032.00021991  .00000020  00000-0  00000-0 0   323
2 54243   0.0098 249.2688 0003275  79.2483  41.2449  1.00310131    11
GALAXY 32 (G-32)    [PM]
1 54244C 22153B   23016.85671296  .00000208  00000-0  00000-0 0   168
2 54244   0.1046 285.6116 0002406  44.6983 311.2131  1.00692771    13
GALAXY 32 (G-32)        
1 54244C 22153B   23026.00000000  .00000147  00000-0  00000-0 0   268
2 54244   0.0785 284.0449 0002667  43.1001  28.8601  1.00695499    11
GALAXY 32 (G-32)        
1 54244C 22153B   23030.00000000  .00000111  00000-0  00000-0 0   309
2 54244   0.0683 287.4988 0002942  41.6214  36.9411  1.00697667    16
GALAXY 35 (G-35)        
1 54741C 22170A   23026.00000000  .00000223  00000-0  00000-0 0   264
2 54741   0.0635 277.1308 0002281  83.6812 334.1312  1.00269930    14
GALAXY 35 (G-35)    [PM]
1 54741C 22170A   23026.65743056  .00000223  00000-0  00000-0 0   260
2 54741   0.0617 277.9768 0002394  81.9211 212.3653  1.00270509    10
GALAXY 35 (G-35)        
1 54741C 22170A   23030.00000000  .00000222  00000-0  00000-0 0   303
2 54741   0.0537 278.5345 0002559  80.3813 339.9664  1.00272872    16
GALAXY 36 (G-36)        
1 54742C 22170B   23026.00000000  .00000223  00000-0  00000-0 0   265
2 54742   0.0227 102.1868 0002173 180.4615  52.4028  1.00273363    16
GALAXY 36 (G-36)        
1 54742C 22170B   23030.00000000  .00000219  00000-0  00000-0 0   300
2 54742   0.0345  96.1167 0002299 205.9941  40.4221  1.00962661    13
GALAXY 36 (G-36)    [PM]
1 54742C 22170B   23031.80375000 -.00000011  00000-0  00000-0 0   316
2 54742   0.0379 248.9456 0002422  48.2958 340.6611  1.00942266    19
